IRIDIUM 154             
1 43574U 18061F   26181.55738936  .00000066  00000+0  16419-4 0  9999
2 43574  86.3950  51.2157 0002231  89.2398 270.9054 14.34218010415320
IRIDIUM 163             
1 43575U 18061G   26181.60813055  .00000057  00000+0  13244-4 0  9995
2 43575  86.3947  51.1093 0002188  84.0886 276.0559 14.34217865415303
IRIDIUM 156             
1 43576U 18061H   26181.65252881  .00000229  00000+0  74575-4 0  9990
2 43576  86.3947  51.0980 0002012  86.8781 273.2645 14.34220340415305
IRIDIUM 164             
1 43577U 18061J   26181.70326953 -.00000006  00000+0 -91361-5 0  9997
2 43577  86.3948  51.1171 0002143  89.8159 270.3283 14.34217464415351
IRIDIUM 159             
1 43578U 18061K   26181.60178816  .00000017  00000+0 -11590-5 0  9997
2 43578  86.3945  51.0960 0002101  84.0192 276.1243 14.34217543415305
IRIDIUM 180             
1 43922U 19002A   26181.46174693  .00000032  00000+0  42983-5 0  9995
2 43922  86.3976 348.0473 0002230  89.4012 270.7439 14.34217775390893
IRIDIUM 176             
1 43923U 19002B   26181.88847477  .00000812  00000+0  12497-3 0  9990
2 43923  86.6097 347.8103 0002385  88.1442 272.0049 14.72232506401269
IRIDIUM 168             
1 43924U 19002C   26181.87401095  .00000180  00000+0  57357-4 0  9995
2 43924  86.3981 347.9525 0002219  90.1812 269.9638 14.34218199390938
IRIDIUM 173             
1 43925U 19002D   26181.44271923  .00000000  00000+0 -71798-5 0  9992
2 43925  86.3973 348.0215 0002040  89.0878 271.0551 14.34217486390856
IRIDIUM 169             
1 43926U 19002E   26181.05050295  .00000306  00000+0  93556-4 0  9990
2 43926  86.4218  19.8142 0001635  86.3630 273.7755 14.38609462392071
IRIDIUM 172             
1 43927U 19002F   26181.50614521  .00000043  00000+0  82999-5 0  9997
2 43927  86.3976 348.0027 0002224  89.3826 270.7625 14.34217253390874
IRIDIUM 175             
1 43928U 19002G   26181.72290178  .00000322  00000+0  89122-4 0  9994
2 43928  86.4519 284.8630 0004158 145.0426 215.1049 14.43620104400935
IRIDIUM 171             
1 43929U 19002H   26181.90572858  .00000005  00000+0 -52290-5 0  9999
2 43929  86.3982 348.1434 0002027  94.2508 265.8919 14.34217446390920
IRIDIUM 170             
1 43930U 19002J   26181.96261887  .00000807  00000+0  12411-3 0  9992
2 43930  86.6096 347.7816 0002442  84.7515 275.3981 14.72233115401283
IRIDIUM 167             
1 43931U 19002K   26181.48077436  .00000030  00000+0  36649-5 0  9994
2 43931  86.3976 348.0358 0002030  97.9743 262.1684 14.34217750390865
IRIDIUM 181             
1 56726U 23068S   26181.76434253  .00000299  00000+0  82734-4 0  9994
2 56726  86.4486  51.1141 0002448  86.6012 273.5469 14.43313216164395
IRIDIUM 177             
1 56727U 23068T   26181.91111424  .00001143  00000+0  14760-3 0  9996
2 56727  86.1975 322.2736 0002324  89.3383 270.8104 14.80043374168398
IRIDIUM 174             
1 56728U 23068U   26181.88228825  .00000846  00000+0  13025-3 0  9999
2 56728  86.6106 347.9640 0002289  80.1675 279.9800 14.72240877168033
IRIDIUM 178             
1 56729U 23068V   26181.96768655  .00001066  00000+0  13745-3 0  9993
2 56729  86.6531  19.5999 0002500  85.8083 274.3425 14.80044631168408
IRIDIUM 179             
1 56730U 23068W   26181.96240203  .00001007  00000+0  12968-3 0  9990
2 56730  86.6765  28.6229 0002435  87.7263 272.4237 14.80061786168404
